     2.10           G: GLONASS NAV DATA                     RINEX VERSION / TYPE
teqc  2015Jun23                         20220501 01:25:41UTCPGM / RUN BY / DATE
Linux 2.4.21-27.ELsmp|Opteron|gcc -static|Linux x86_64|=+   COMMENT
  2022     4    20   -4.656612873077D-10                    CORR TO SYSTEM TIME
                                                            END OF HEADER
 2 22  4 21  4 15  0.0 5.161473527551D-04 0.000000000000D+00 1.440000000000D+04
    3.800549804688D+03-2.413384437561D+00 1.862645149231D-09 0.000000000000D+00
    1.396446533203D+04-1.576974868774D+00-9.313225746155D-10-4.000000000000D+00
   -2.093990625000D+04-1.491668701172D+00 1.862645149231D-09 0.000000000000D+00
 3 22  4 21  4 15  0.0 5.531217902899D-05 0.000000000000D+00 1.440000000000D+04
    1.829878369141D+04-8.869647979736D-01 1.862645149231D-09 0.000000000000D+00
    1.570690820312D+04-7.156763076782D-01-1.862645149231D-09 5.000000000000D+00
   -8.182208496094D+03-3.341572761536D+00-9.313225746155D-10 0.000000000000D+00
12 22  4 21  4 15  0.0 1.803133636713D-05 0.000000000000D+00 1.440000000000D+04
   -2.134415771484D+04-3.113956451416D-01-2.793967723846D-09 0.000000000000D+00
    1.360692431641D+04 3.509759902954D-01 0.000000000000D+00-1.000000000000D+00
    3.256312011719D+03-3.529726982117D+00 2.793967723846D-09 0.000000000000D+00
17 22  4 21  4 15  0.0 5.193501710892D-04 2.728484105319D-12 1.440000000000D+04
    5.828674804688D+03 1.251745223999D-01 9.313225746155D-10 0.000000000000D+00
    2.042411914062D+04 1.943396568298D+00-1.862645149231D-09 4.000000000000D+00
   -1.414628271484D+04 2.853452682495D+00 9.313225746155D-10 0.000000000000D+00
23 22  4 21  4 45  0.0-3.790203481913D-05-9.094947017729D-13 1.620000000000D+04
   -8.011797363281D+03-1.327638626099D-01-3.725290298462D-09 0.000000000000D+00
    1.290908984375D+04-2.810944557190D+00 9.313225746155D-10 3.000000000000D+00
    2.047522900391D+04 1.720056533813D+00 0.000000000000D+00 0.000000000000D+00
24 22  4 21  4 45  0.0 9.006820619106D-05 1.818989403546D-12 1.620000000000D+04
   -2.072523925781D+03 5.875492095947D-02-2.793967723846D-09 0.000000000000D+00
    2.377889404297D+04-1.243753433228D+00 0.000000000000D+00 2.000000000000D+00
    9.019720703125D+03 3.296169281006D+00 0.000000000000D+00 0.000000000000D+00
 3 22  4 21  4 45  0.0 5.531217902899D-05-0.000000000000D+00 1.620000000000D+04
    1.597650488281D+04-1.687734603882D+00 1.862645149231D-09 0.000000000000D+00
    1.422706445312D+04-8.851537704468D-01-1.862645149231D-09 5.000000000000D+00
   -1.380087060547D+04-2.860558509827D+00-0.000000000000D+00 0.000000000000D+00
 2 22  4 21  4 45  0.0 5.161473527551D-04 0.000000000000D+00 1.620000000000D+04
   -9.685942382812D+02-2.846886634827D+00 1.862645149231D-09 0.000000000000D+00
    1.133649121094D+04-1.309025764465D+00-9.313225746155D-10-4.000000000000D+00
   -2.277567529297D+04-5.348558425903D-01 1.862645149231D-09 0.000000000000D+00
12 22  4 21  4 45  0.0 1.803226768970D-05 0.000000000000D+00 1.620000000000D+04
   -2.120811621094D+04 4.406709671021D-01-1.862645149231D-09 0.000000000000D+00
    1.383450927734D+04-1.324558258057D-01 9.313225746155D-10-1.000000000000D+00
   -3.140932128906D+03-3.532214164734D+00 2.793967723846D-09 0.000000000000D+00
13 22  4 21  4 45  0.0-2.119876444340D-05-0.000000000000D+00 1.620000000000D+04
   -1.304269189453D+04-1.342123985291D+00-3.725290298462D-09 0.000000000000D+00
    1.766300146484D+04 1.173709869385D+00 9.313225746155D-10-2.000000000000D+00
    1.296656298828D+04-2.944483757019D+00 9.313225746155D-10 0.000000000000D+00
17 22  4 21  4 45  0.0 5.193566903472D-04 2.728484105319D-12 1.620000000000D+04
    6.273244140625D+03 3.311100006104D-01-0.000000000000D+00 0.000000000000D+00
    2.322268847656D+04 1.141432762146D+00-9.313225746155D-10 4.000000000000D+00
   -8.530207519531D+03 3.346144676208D+00 9.313225746155D-10 0.000000000000D+00
14 22  4 21  4 45  0.0 7.674098014832D-05 0.000000000000D+00 1.749000000000D+04
    3.814092285156D+03-2.484683036804D+00-2.793967723846D-09 0.000000000000D+00
    1.089146630859D+04 1.874421119690D+00 0.000000000000D+00-7.000000000000D+00
    2.275535742188D+04-4.823064804077D-01-9.313225746155D-10 0.000000000000D+00
18 22  4 21  4 45  0.0 1.142518594861D-04 9.094947017729D-13 1.791000000000D+04
    1.039531494141D+04 3.746852874756D-01 2.793967723846D-09 0.000000000000D+00
    1.014320654297D+04 2.853934288025D+00-1.862645149231D-09-3.000000000000D+00
   -2.094217431641D+04 1.572614669800D+00 9.313225746155D-10 0.000000000000D+00
24 22  4 21  5 15  0.0 9.007193148136D-05 1.818989403546D-12 1.800000000000D+04
   -2.258593261719D+03-2.963514328003D-01-3.725290298462D-09 0.000000000000D+00
    2.085732568359D+04-1.970391273499D+00 9.313225746155D-10 2.000000000000D+00
    1.452789306641D+04 2.784349441528D+00 0.000000000000D+00 0.000000000000D+00
18 22  4 21  5 15  0.0 1.142537221313D-04 0.000000000000D+00 1.800000000000D+04
    1.137963623047D+04 6.884698867798D-01 9.313225746155D-10 0.000000000000D+00
    1.480538427734D+04 2.286119461060D+00-1.862645149231D-09-3.000000000000D+00
   -1.733632910156D+04 2.407893180847D+00 9.313225746155D-10 0.000000000000D+00
13 22  4 21  5 15  0.0-2.119690179825D-05-0.000000000000D+00 1.800000000000D+04
   -1.478900000000D+04-6.047983169556D-01-2.793967723846D-09 0.000000000000D+00
    1.947836523438D+04 8.008384704590D-01 9.313225746155D-10-2.000000000000D+00
    7.233289062500D+03-3.384388923645D+00 1.862645149231D-09 0.000000000000D+00
 2 22  4 21  5 15  0.0 5.161482840776D-04 0.000000000000D+00 1.800000000000D+04
   -6.288089355469D+03-3.014824867249D+00 9.313225746155D-10 0.000000000000D+00
    9.348322265625D+03-8.813543319702D-01-0.000000000000D+00-4.000000000000D+00
   -2.284087597656D+04 4.627094268799D-01 2.793967723846D-09 0.000000000000D+00
 3 22  4 21  5 15  0.0 5.531217902899D-05-0.000000000000D+00 1.800000000000D+04
    1.227797705078D+04-2.397150039673D+00 1.862645149231D-09 0.000000000000D+00
    1.267312597656D+04-8.015327453613D-01-1.862645149231D-09 5.000000000000D+00
   -1.834619921875D+04-2.156775474548D+00 9.313225746155D-10 0.000000000000D+00
12 22  4 21  5 15  0.0 1.803319901228D-05 0.000000000000D+00 1.800000000000D+04
   -1.986390625000D+04 1.016861915588D+00-9.313225746155D-10 0.000000000000D+00
    1.302880029297D+04-7.836055755615D-01 9.313225746155D-10-1.000000000000D+00
   -9.295427734375D+03-3.261696815491D+00 2.793967723846D-09 0.000000000000D+00
14 22  4 21  5 15  0.0 7.674191147089D-05 0.000000000000D+00 1.800000000000D+04
   -2.694760742188D+02-2.022212982178D+00-3.725290298462D-09 0.000000000000D+00
    1.445502978516D+04 2.044749259949D+00 9.313225746155D-10-7.000000000000D+00
    2.101943115234D+04-1.434045791626D+00-0.000000000000D+00 0.000000000000D+00
17 22  4 21  5 15  0.0 5.193632096052D-04 2.728484105319D-12 1.800000000000D+04
    6.873531250000D+03 2.933244705200D-01-9.313225746155D-10 0.000000000000D+00
    2.447841552734D+04 2.484722137451D-01-9.313225746155D-10 4.000000000000D+00
   -2.255609375000D+03 3.580429077148D+00 9.313225746155D-10 0.000000000000D+00
24 22  4 21  5 45  0.0 9.007472544909D-05 1.818989403546D-12 1.980000000000D+04
   -3.225935546875D+03-7.947502136230D-01-3.725290298462D-09 0.000000000000D+00
    1.682555566406D+04-2.464818000793D+00 1.862645149231D-09 2.000000000000D+00
    1.891413916016D+04 2.057682991028D+00 0.000000000000D+00 0.000000000000D+00
18 22  4 21  5 45  0.0 1.142546534538D-04 0.000000000000D+00 1.980000000000D+04
    1.274239550781D+04 7.845458984375D-01-0.000000000000D+00 0.000000000000D+00
    1.825646582031D+04 1.524652481079D+00-1.862645149231D-09-3.000000000000D+00
   -1.238582763672D+04 3.056875228882D+00 9.313225746155D-10 0.000000000000D+00
12 22  4 21  5 45  0.0 1.803319901228D-05 0.000000000000D+00 1.980000000000D+04
   -1.769385156250D+04 1.350411415100D+00-0.000000000000D+00 0.000000000000D+00
    1.096941259766D+04-1.507719039917D+00 0.000000000000D+00-1.000000000000D+00
   -1.473118212891D+04-2.738744735718D+00 3.725290298462D-09 0.000000000000D+00
 2 22  4 21  5 45  0.0 5.161501467228D-04 0.000000000000D+00 1.980000000000D+04
   -1.163856396484D+04-2.878678321838D+00 0.000000000000D+00 0.000000000000D+00
    8.198819335938D+03-3.952693939209D-01-0.000000000000D+00-4.000000000000D+00
   -2.113224511719D+04 1.423177719116D+00 2.793967723846D-09 0.000000000000D+00
13 22  4 21  5 45  0.0-2.119783312082D-05-0.000000000000D+00 1.980000000000D+04
   -1.527586474609D+04 4.003047943115D-02-1.862645149231D-09 0.000000000000D+00
    2.040678759766D+04 1.972894668579D-01 1.862645149231D-09-2.000000000000D+00
    9.403618164062D+02-3.562314987183D+00 2.793967723846D-09 0.000000000000D+00
14 22  4 21  5 45  0.0 7.674284279346D-05 0.000000000000D+00 1.980000000000D+04
   -3.385917968750D+03-1.427084922791D+00-3.725290298462D-09 0.000000000000D+00
    1.809345654297D+04 1.951331138611D+00 1.862645149231D-09-7.000000000000D+00
    1.765923046875D+04-2.275337219238D+00 0.000000000000D+00 0.000000000000D+00
17 22  4 21  5 45  0.0 5.193697288632D-04 2.728484105319D-12 1.980000000000D+04
    7.178425292969D+03 5.782127380371D-03-1.862645149231D-09 0.000000000000D+00
    2.413416796875D+04-6.163988113403D-01 0.000000000000D+00 4.000000000000D+00
    4.193094238281D+03 3.538356781006D+00 0.000000000000D+00 0.000000000000D+00
24 22  4 21  6 15  0.0 9.007845073938D-05 1.818989403546D-12 2.160000000000D+04
   -5.146696777344D+03-1.337770462036D+00-2.793967723846D-09 0.000000000000D+00
    1.215696337891D+04-2.672467231750D+00 2.793967723846D-09 2.000000000000D+00
    2.184007714844D+04 1.172301292419D+00 0.000000000000D+00 0.000000000000D+00
18 22  4 21  6 15  0.0 1.142565160990D-04 0.000000000000D+00 2.160000000000D+04
    1.404697167969D+04 6.204776763916D-01-9.313225746155D-10 0.000000000000D+00
    2.024342968750D+04 6.790351867676D-01-9.313225746155D-10-3.000000000000D+00
   -6.474168945312D+03 3.468831062317D+00 9.313225746155D-10 0.000000000000D+00
